COSMOS 2526             
1 43432U 18037A   26115.94899966 -.00000358  00000+0  00000+0 0  9995
2 43432   0.0021 185.8047 0000293 293.6519 204.1967  1.00272004 29436
BREEZE-M R/B            
1 43433U 18037B   26115.15888885 -.00000197  00000+0  00000+0 0  9998
2 43433   7.9986  71.8095 0677676  26.9768 336.3253  0.90514539 26723
TITAN 3C TRANSTAGE DEB  
1 43448U 69013H   26115.41892800 -.00000221  00000+0  00000+0 0  9993
2 43448   1.0338 108.4638 0251036  32.2475 330.0633  0.98710359 29023
APSTAR-6C               
1 43450U 18041A   26115.82080729 -.00000331  00000+0  00000+0 0  9997
2 43450   0.0428   7.6397 0002102 352.0656 283.6131  1.00274261 29284
TITAN 3C TRANSTAGE DEB  
1 43453U 69013L   26115.53053852 -.00000196  00000+0  00000+0 0  9999
2 43453   1.4716 139.0947 0829166 330.1788  25.9573  1.07385283 31478
TITAN 3C TRANSTAGE DEB  
1 43454U 69013M   26115.77497860 -.00000008  00000+0  00000+0 0  9999
2 43454   1.0363 128.1827 0546394 343.3050  15.8789  1.02843983 30091
TITAN 3C TRANSTAGE DEB  
1 43456U 69013P   26115.27213533 -.00000297  00000+0  00000+0 0  9999
2 43456   1.8550  49.8792 0938656  32.2252 333.0338  1.02716642  6182
BANGABANDHUSAT-1        
1 43463U 18044A   26115.94717965 -.00000376  00000+0  00000+0 0  9995
2 43463   0.0312  65.7195 0002079 328.0143 280.3059  1.00272214 29186
SES-12                  
1 43488U 18049A   26115.98369749  .00000000  00000+0  00000+0 0  9997
2 43488   0.0161  69.6107 0001300 249.8261 343.6976  1.00271361 28898
FENGYUN 2H              
1 43491U 18050A   26115.93929295 -.00000140  00000+0  00000+0 0  9992
2 43491   2.8988  79.6569 0001751 159.1021  32.5834  1.00274278 28919
FENGYUN 2H AKM          
1 43497U 18050C   26115.11934288  .00000013  00000+0  00000+0 0  9994
2 43497   4.7335  77.2559 0089303 323.8991  35.5119  1.00087006 28774
TITAN 3C TRANSTAGE DEB  
1 43514U 69013S   26115.71614477 -.00000239  00000+0  00000+0 0  9991
2 43514   1.3950  61.5700 0226644  46.4922 315.3815  0.97799701877846
BEIDOU-2 IGSO-7         
1 43539U 18057A   26113.82760630 -.00000099  00000+0  00000+0 0  9997
2 43539  55.1848 163.5332 0103271 237.5854 221.4335  1.00267626 28581
TELSTAR 19V             
1 43562U 18059A   26115.91112617 -.00000293  00000+0  00000+0 0  9999
2 43562   0.0190 192.6144 0001607 252.3679  33.9385  1.00270877 28628
TELKOM 4 (MERAH PUTIH)  
1 43587U 18064A   26115.94164324 -.00000357  00000+0  00000+0 0  9998
2 43587   0.0042 207.4670 0002021 218.1261 235.3447  1.00272603 28354
TELSTAR 18V             
1 43611U 18069A   26115.95090633 -.00000307  00000+0  00000+0 0  9998
2 43611   0.0136 265.8313 0002001 117.2370 311.2180  1.00271456 28113
AZERSPACE 2 (IS-38)     
1 43632U 18074A   26115.95252912  .00000123  00000+0  00000+0 0  9992
2 43632   0.0182 256.4093 0001391 125.4446 220.1301  1.00269580 27920
