[{"OBJECT_NAME":"COSMOS 2526","OBJECT_ID":"2018-037A","EPOCH":"2026-04-25T22:46:33.570624","MEAN_MOTION":1.00272004,"ECCENTRICITY":2.934e-5,"INCLINATION":0.0021,"RA_OF_ASC_NODE":185.8047,"ARG_OF_PERICENTER":293.6519,"MEAN_ANOMALY":204.1967,"EPHEMERIS_TYPE":0,"CLASSIFICATION_TYPE":"U","NORAD_CAT_ID":43432,"ELEMENT_SET_NO":999,"REV_AT_EPOCH":2943,"BSTAR":0,"MEAN_MOTION_DOT":-3.58e-6,"MEAN_MOTION_DDOT":0},{"OBJECT_NAME":"BREEZE-M R/B","OBJECT_ID":"2018-037B","EPOCH":"2026-04-25T03:48:47.996640","MEAN_MOTION":0.90514539,"ECCENTRICITY":0.0677676,"INCLINATION":7.9986,"RA_OF_ASC_NODE":71.8095,"ARG_OF_PERICENTER":26.9768,"MEAN_ANOMALY":336.3253,"EPHEMERIS_TYPE":0,"CLASSIFICATION_TYPE":"U","NORAD_CAT_ID":43433,"ELEMENT_SET_NO":999,"REV_AT_EPOCH":2672,"BSTAR":0,"MEAN_MOTION_DOT":-1.97e-6,"MEAN_MOTION_DDOT":0},{"OBJECT_NAME":"TITAN 3C TRANSTAGE DEB","OBJECT_ID":"1969-013H","EPOCH":"2026-04-25T10:03:15.379200","MEAN_MOTION":0.98710359,"ECCENTRICITY":0.02510365,"INCLINATION":1.0338,"RA_OF_ASC_NODE":108.4638,"ARG_OF_PERICENTER":32.2475,"MEAN_ANOMALY":330.0633,"EPHEMERIS_TYPE":0,"CLASSIFICATION_TYPE":"U","NORAD_CAT_ID":43448,"ELEMENT_SET_NO":999,"REV_AT_EPOCH":2902,"BSTAR":0,"MEAN_MOTION_DOT":-2.21e-6,"MEAN_MOTION_DDOT":0},{"OBJECT_NAME":"APSTAR-6C","OBJECT_ID":"2018-041A","EPOCH":"2026-04-25T19:41:57.749856","MEAN_MOTION":1.00274261,"ECCENTRICITY":0.0002102,"INCLINATION":0.0428,"RA_OF_ASC_NODE":7.6397,"ARG_OF_PERICENTER":352.0656,"MEAN_ANOMALY":283.6131,"EPHEMERIS_TYPE":0,"CLASSIFICATION_TYPE":"U","NORAD_CAT_ID":43450,"ELEMENT_SET_NO":999,"REV_AT_EPOCH":2928,"BSTAR":0,"MEAN_MOTION_DOT":-3.31e-6,"MEAN_MOTION_DDOT":0},{"OBJECT_NAME":"TITAN 3C TRANSTAGE DEB","OBJECT_ID":"1969-013L","EPOCH":"2026-04-25T12:43:58.528128","MEAN_MOTION":1.07385283,"ECCENTRICITY":0.08291666,"INCLINATION":1.4716,"RA_OF_ASC_NODE":139.0947,"ARG_OF_PERICENTER":330.1788,"MEAN_ANOMALY":25.9573,"EPHEMERIS_TYPE":0,"CLASSIFICATION_TYPE":"U","NORAD_CAT_ID":43453,"ELEMENT_SET_NO":999,"REV_AT_EPOCH":3147,"BSTAR":0,"MEAN_MOTION_DOT":-1.96e-6,"MEAN_MOTION_DDOT":0},{"OBJECT_NAME":"TITAN 3C TRANSTAGE DEB","OBJECT_ID":"1969-013M","EPOCH":"2026-04-25T18:35:58.151040","MEAN_MOTION":1.02843983,"ECCENTRICITY":0.05463947,"INCLINATION":1.0363,"RA_OF_ASC_NODE":128.1827,"ARG_OF_PERICENTER":343.305,"MEAN_ANOMALY":15.8789,"EPHEMERIS_TYPE":0,"CLASSIFICATION_TYPE":"U","NORAD_CAT_ID":43454,"ELEMENT_SET_NO":999,"REV_AT_EPOCH":3009,"BSTAR":0,"MEAN_MOTION_DOT":-8.0e-8,"MEAN_MOTION_DDOT":0},{"OBJECT_NAME":"TITAN 3C TRANSTAGE DEB","OBJECT_ID":"1969-013P","EPOCH":"2026-04-25T06:31:52.492512","MEAN_MOTION":1.02716642,"ECCENTRICITY":0.09386569,"INCLINATION":1.855,"RA_OF_ASC_NODE":49.8792,"ARG_OF_PERICENTER":32.2252,"MEAN_ANOMALY":333.0338,"EPHEMERIS_TYPE":0,"CLASSIFICATION_TYPE":"U","NORAD_CAT_ID":43456,"ELEMENT_SET_NO":999,"REV_AT_EPOCH":618,"BSTAR":0,"MEAN_MOTION_DOT":-2.97e-6,"MEAN_MOTION_DDOT":0},{"OBJECT_NAME":"BANGABANDHUSAT-1","OBJECT_ID":"2018-044A","EPOCH":"2026-04-25T22:43:56.321760","MEAN_MOTION":1.00272214,"ECCENTRICITY":0.00020793,"INCLINATION":0.0312,"RA_OF_ASC_NODE":65.7195,"ARG_OF_PERICENTER":328.0143,"MEAN_ANOMALY":280.3059,"EPHEMERIS_TYPE":0,"CLASSIFICATION_TYPE":"U","NORAD_CAT_ID":43463,"ELEMENT_SET_NO":999,"REV_AT_EPOCH":2918,"BSTAR":0,"MEAN_MOTION_DOT":-3.76e-6,"MEAN_MOTION_DDOT":0},{"OBJECT_NAME":"SES-12","OBJECT_ID":"2018-049A","EPOCH":"2026-04-25T23:36:31.463136","MEAN_MOTION":1.00271361,"ECCENTRICITY":0.00013007,"INCLINATION":0.0161,"RA_OF_ASC_NODE":69.6107,"ARG_OF_PERICENTER":249.8261,"MEAN_ANOMALY":343.6976,"EPHEMERIS_TYPE":0,"CLASSIFICATION_TYPE":"U","NORAD_CAT_ID":43488,"ELEMENT_SET_NO":999,"REV_AT_EPOCH":2889,"BSTAR":0,"MEAN_MOTION_DOT":0,"MEAN_MOTION_DDOT":0},{"OBJECT_NAME":"FENGYUN 2H","OBJECT_ID":"2018-050A","EPOCH":"2026-04-25T22:32:34.910880","MEAN_MOTION":1.00274278,"ECCENTRICITY":0.00017519,"INCLINATION":2.8988,"RA_OF_ASC_NODE":79.6569,"ARG_OF_PERICENTER":159.1021,"MEAN_ANOMALY":32.5834,"EPHEMERIS_TYPE":0,"CLASSIFICATION_TYPE":"U","NORAD_CAT_ID":43491,"ELEMENT_SET_NO":999,"REV_AT_EPOCH":2891,"BSTAR":0,"MEAN_MOTION_DOT":-1.4e-6,"MEAN_MOTION_DDOT":0},{"OBJECT_NAME":"FENGYUN 2H AKM","OBJECT_ID":"2018-050C","EPOCH":"2026-04-25T02:51:51.224832","MEAN_MOTION":1.00087006,"ECCENTRICITY":0.00893035,"INCLINATION":4.7335,"RA_OF_ASC_NODE":77.2559,"ARG_OF_PERICENTER":323.8991,"MEAN_ANOMALY":35.5119,"EPHEMERIS_TYPE":0,"CLASSIFICATION_TYPE":"U","NORAD_CAT_ID":43497,"ELEMENT_SET_NO":999,"REV_AT_EPOCH":2877,"BSTAR":0,"MEAN_MOTION_DOT":1.3e-7,"MEAN_MOTION_DDOT":0},{"OBJECT_NAME":"TITAN 3C TRANSTAGE DEB","OBJECT_ID":"1969-013S","EPOCH":"2026-04-25T17:11:14.908128","MEAN_MOTION":0.97799701,"ECCENTRICITY":0.02266444,"INCLINATION":1.395,"RA_OF_ASC_NODE":61.57,"ARG_OF_PERICENTER":46.4922,"MEAN_ANOMALY":315.3815,"EPHEMERIS_TYPE":0,"CLASSIFICATION_TYPE":"U","NORAD_CAT_ID":43514,"ELEMENT_SET_NO":999,"REV_AT_EPOCH":87784,"BSTAR":0,"MEAN_MOTION_DOT":-2.39e-6,"MEAN_MOTION_DDOT":0},{"OBJECT_NAME":"BEIDOU-2 IGSO-7","OBJECT_ID":"2018-057A","EPOCH":"2026-04-23T19:51:45.184320","MEAN_MOTION":1.00267626,"ECCENTRICITY":0.01032717,"INCLINATION":55.1848,"RA_OF_ASC_NODE":163.5332,"ARG_OF_PERICENTER":237.5854,"MEAN_ANOMALY":221.4335,"EPHEMERIS_TYPE":0,"CLASSIFICATION_TYPE":"U","NORAD_CAT_ID":43539,"ELEMENT_SET_NO":999,"REV_AT_EPOCH":2858,"BSTAR":0,"MEAN_MOTION_DOT":-9.9e-7,"MEAN_MOTION_DDOT":0},{"OBJECT_NAME":"TELSTAR 19V","OBJECT_ID":"2018-059A","EPOCH":"2026-04-25T21:52:01.301088","MEAN_MOTION":1.00270877,"ECCENTRICITY":0.00016075,"INCLINATION":0.019,"RA_OF_ASC_NODE":192.6144,"ARG_OF_PERICENTER":252.3679,"MEAN_ANOMALY":33.9385,"EPHEMERIS_TYPE":0,"CLASSIFICATION_TYPE":"U","NORAD_CAT_ID":43562,"ELEMENT_SET_NO":999,"REV_AT_EPOCH":2862,"BSTAR":0,"MEAN_MOTION_DOT":-2.93e-6,"MEAN_MOTION_DDOT":0},{"OBJECT_NAME":"TELKOM 4 (MERAH PUTIH)","OBJECT_ID":"2018-064A","EPOCH":"2026-04-25T22:35:57.975936","MEAN_MOTION":1.00272603,"ECCENTRICITY":0.00020219,"INCLINATION":0.0042,"RA_OF_ASC_NODE":207.467,"ARG_OF_PERICENTER":218.1261,"MEAN_ANOMALY":235.3447,"EPHEMERIS_TYPE":0,"CLASSIFICATION_TYPE":"U","NORAD_CAT_ID":43587,"ELEMENT_SET_NO":999,"REV_AT_EPOCH":2835,"BSTAR":0,"MEAN_MOTION_DOT":-3.57e-6,"MEAN_MOTION_DDOT":0},{"OBJECT_NAME":"TELSTAR 18V","OBJECT_ID":"2018-069A","EPOCH":"2026-04-25T22:49:18.306912","MEAN_MOTION":1.00271456,"ECCENTRICITY":0.00020011,"INCLINATION":0.0136,"RA_OF_ASC_NODE":265.8313,"ARG_OF_PERICENTER":117.237,"MEAN_ANOMALY":311.218,"EPHEMERIS_TYPE":0,"CLASSIFICATION_TYPE":"U","NORAD_CAT_ID":43611,"ELEMENT_SET_NO":999,"REV_AT_EPOCH":2811,"BSTAR":0,"MEAN_MOTION_DOT":-3.07e-6,"MEAN_MOTION_DDOT":0},{"OBJECT_NAME":"AZERSPACE 2 (IS-38)","OBJECT_ID":"2018-074A","EPOCH":"2026-04-25T22:51:38.515968","MEAN_MOTION":1.0026958,"ECCENTRICITY":0.00013912,"INCLINATION":0.0182,"RA_OF_ASC_NODE":256.4093,"ARG_OF_PERICENTER":125.4446,"MEAN_ANOMALY":220.1301,"EPHEMERIS_TYPE":0,"CLASSIFICATION_TYPE":"U","NORAD_CAT_ID":43632,"ELEMENT_SET_NO":999,"REV_AT_EPOCH":2792,"BSTAR":0,"MEAN_MOTION_DOT":1.23e-6,"MEAN_MOTION_DDOT":0}]
